[{"OBJECT_NAME":"CZ-2D R/B","OBJECT_ID":"2005-024B","EPOCH":"2026-03-05T23:43:57.196416","MEAN_MOTION":15.59754184,"ECCENTRICITY":0.00063543,"INCLINATION":97.3594,"RA_OF_ASC_NODE":79.9995,"ARG_OF_PERICENTER":56.6913,"MEAN_ANOMALY":303.4952,"EPHEMERIS_TYPE":0,"CLASSIFICATION_TYPE":"U","NORAD_CAT_ID":28738,"ELEMENT_SET_NO":999,"REV_AT_EPOCH":13920,"BSTAR":0.00053104195,"MEAN_MOTION_DOT":0.00042575,"MEAN_MOTION_DDOT":0},{"OBJECT_NAME":"ALOS (DAICHI)","OBJECT_ID":"2006-002A","EPOCH":"2026-03-05T21:28:34.738464","MEAN_MOTION":14.69796405,"ECCENTRICITY":0.00010646,"INCLINATION":98.1215,"RA_OF_ASC_NODE":20.8693,"ARG_OF_PERICENTER":54.0703,"MEAN_ANOMALY":306.0601,"EPHEMERIS_TYPE":0,"CLASSIFICATION_TYPE":"U","NORAD_CAT_ID":28931,"ELEMENT_SET_NO":999,"REV_AT_EPOCH":7292,"BSTAR":0.00038459811,"MEAN_MOTION_DOT":2.246e-5,"MEAN_MOTION_DDOT":0},{"OBJECT_NAME":"H-2A R/B","OBJECT_ID":"2006-002B","EPOCH":"2026-03-05T23:30:56.693376","MEAN_MOTION":15.16321114,"ECCENTRICITY":0.00519125,"INCLINATION":98.2404,"RA_OF_ASC_NODE":211.6848,"ARG_OF_PERICENTER":253.7613,"MEAN_ANOMALY":105.7903,"EPHEMERIS_TYPE":0,"CLASSIFICATION_TYPE":"U","NORAD_CAT_ID":28932,"ELEMENT_SET_NO":999,"REV_AT_EPOCH":9387,"BSTAR":0.00051902603,"MEAN_MOTION_DOT":0.00010336,"MEAN_MOTION_DDOT":0},{"OBJECT_NAME":"RESURS-DK 1","OBJECT_ID":"2006-021A","EPOCH":"2026-03-05T21:34:00.303168","MEAN_MOTION":15.1271075,"ECCENTRICITY":0.00023155,"INCLINATION":69.931,"RA_OF_ASC_NODE":246.8301,"ARG_OF_PERICENTER":165.483,"MEAN_ANOMALY":194.6403,"EPHEMERIS_TYPE":0,"CLASSIFICATION_TYPE":"U","NORAD_CAT_ID":29228,"ELEMENT_SET_NO":999,"REV_AT_EPOCH":8695,"BSTAR":0.00019331875,"MEAN_MOTION_DOT":3.287e-5,"MEAN_MOTION_DDOT":0},{"OBJECT_NAME":"CZ-4B R/B","OBJECT_ID":"2006-046C","EPOCH":"2026-03-05T18:47:44.081376","MEAN_MOTION":15.16857792,"ECCENTRICITY":0.00316476,"INCLINATION":97.5598,"RA_OF_ASC_NODE":109.7022,"ARG_OF_PERICENTER":281.4804,"MEAN_ANOMALY":78.2875,"EPHEMERIS_TYPE":0,"CLASSIFICATION_TYPE":"U","NORAD_CAT_ID":29507,"ELEMENT_SET_NO":999,"REV_AT_EPOCH":5945,"BSTAR":0.00033233037,"MEAN_MOTION_DOT":6.554e-5,"MEAN_MOTION_DDOT":0},{"OBJECT_NAME":"CZ-2C R/B","OBJECT_ID":"2007-010B","EPOCH":"2026-03-05T22:07:04.607904","MEAN_MOTION":14.20244498,"ECCENTRICITY":0.00579831,"INCLINATION":98.3978,"RA_OF_ASC_NODE":178.3893,"ARG_OF_PERICENTER":305.7809,"MEAN_ANOMALY":53.7986,"EPHEMERIS_TYPE":0,"CLASSIFICATION_TYPE":"U","NORAD_CAT_ID":31114,"ELEMENT_SET_NO":999,"REV_AT_EPOCH":97918,"BSTAR":9.1795736e-5,"MEAN_MOTION_DOT":1.58e-6,"MEAN_MOTION_DDOT":0},{"OBJECT_NAME":"COSMO-SKYMED 1","OBJECT_ID":"2007-023A","EPOCH":"2026-03-05T23:41:16.806912","MEAN_MOTION":14.96498096,"ECCENTRICITY":8.932e-5,"INCLINATION":97.8862,"RA_OF_ASC_NODE":255.9896,"ARG_OF_PERICENTER":98.2893,"MEAN_ANOMALY":261.8429,"EPHEMERIS_TYPE":0,"CLASSIFICATION_TYPE":"U","NORAD_CAT_ID":31598,"ELEMENT_SET_NO":999,"REV_AT_EPOCH":1435,"BSTAR":0.0003464053,"MEAN_MOTION_DOT":3.876e-5,"MEAN_MOTION_DDOT":0},{"OBJECT_NAME":"COSMOS 2428","OBJECT_ID":"2007-029A","EPOCH":"2026-03-05T20:28:51.890304","MEAN_MOTION":14.12945097,"ECCENTRICITY":0.00089117,"INCLINATION":70.9426,"RA_OF_ASC_NODE":211.395,"ARG_OF_PERICENTER":281.0546,"MEAN_ANOMALY":78.9572,"EPHEMERIS_TYPE":0,"CLASSIFICATION_TYPE":"U","NORAD_CAT_ID":31792,"ELEMENT_SET_NO":999,"REV_AT_EPOCH":96355,"BSTAR":5.8886686e-5,"MEAN_MOTION_DOT":6.2e-7,"MEAN_MOTION_DDOT":0},{"OBJECT_NAME":"SL-16 R/B","OBJECT_ID":"2007-029B","EPOCH":"2026-03-05T18:07:49.456992","MEAN_MOTION":14.14833448,"ECCENTRICITY":0.00023724,"INCLINATION":70.9757,"RA_OF_ASC_NODE":180.6541,"ARG_OF_PERICENTER":277.2484,"MEAN_ANOMALY":192.7201,"EPHEMERIS_TYPE":0,"CLASSIFICATION_TYPE":"U","NORAD_CAT_ID":31793,"ELEMENT_SET_NO":999,"REV_AT_EPOCH":96481,"BSTAR":-2.459446e-5,"MEAN_MOTION_DOT":-9.5e-7,"MEAN_MOTION_DDOT":0},{"OBJECT_NAME":"KORONAS-FOTON","OBJECT_ID":"2009-003A","EPOCH":"2026-03-05T14:44:57.534720","MEAN_MOTION":15.43212499,"ECCENTRICITY":0.0010935,"INCLINATION":82.4277,"RA_OF_ASC_NODE":280.1155,"ARG_OF_PERICENTER":163.4011,"MEAN_ANOMALY":196.7596,"EPHEMERIS_TYPE":0,"CLASSIFICATION_TYPE":"U","NORAD_CAT_ID":33504,"ELEMENT_SET_NO":999,"REV_AT_EPOCH":94511,"BSTAR":0.00032328,"MEAN_MOTION_DOT":0.00014419,"MEAN_MOTION_DDOT":0},{"OBJECT_NAME":"CZ-2C R/B","OBJECT_ID":"2011-030B","EPOCH":"2026-03-05T21:32:18.858336","MEAN_MOTION":14.81204198,"ECCENTRICITY":0.00528016,"INCLINATION":97.8542,"RA_OF_ASC_NODE":22.2365,"ARG_OF_PERICENTER":4.4539,"MEAN_ANOMALY":61.7844,"EPHEMERIS_TYPE":0,"CLASSIFICATION_TYPE":"U","NORAD_CAT_ID":37731,"ELEMENT_SET_NO":999,"REV_AT_EPOCH":78953,"BSTAR":0.00029969177,"MEAN_MOTION_DOT":2.334e-5,"MEAN_MOTION_DDOT":0},{"OBJECT_NAME":"H-2A R/B","OBJECT_ID":"2012-025E","EPOCH":"2026-03-05T21:56:06.271008","MEAN_MOTION":14.95127032,"ECCENTRICITY":0.00435846,"INCLINATION":98.4726,"RA_OF_ASC_NODE":31.6575,"ARG_OF_PERICENTER":326.9915,"MEAN_ANOMALY":32.8584,"EPHEMERIS_TYPE":0,"CLASSIFICATION_TYPE":"U","NORAD_CAT_ID":38341,"ELEMENT_SET_NO":999,"REV_AT_EPOCH":74765,"BSTAR":0.0004592753,"MEAN_MOTION_DOT":5.065e-5,"MEAN_MOTION_DDOT":0},{"OBJECT_NAME":"SHIJIAN-16 (SJ-16)","OBJECT_ID":"2013-057A","EPOCH":"2026-03-05T22:36:17.659584","MEAN_MOTION":14.92320441,"ECCENTRICITY":0.00157011,"INCLINATION":74.9735,"RA_OF_ASC_NODE":192.1817,"ARG_OF_PERICENTER":122.1313,"MEAN_ANOMALY":238.1401,"EPHEMERIS_TYPE":0,"CLASSIFICATION_TYPE":"U","NORAD_CAT_ID":39358,"ELEMENT_SET_NO":999,"REV_AT_EPOCH":67094,"BSTAR":5.0298572e-5,"MEAN_MOTION_DOT":4.86e-6,"MEAN_MOTION_DDOT":0},{"OBJECT_NAME":"SL-4 R/B","OBJECT_ID":"2014-021B","EPOCH":"2026-03-05T05:07:40.513440","MEAN_MOTION":15.39008154,"ECCENTRICITY":0.0097883,"INCLINATION":51.6094,"RA_OF_ASC_NODE":359.1115,"ARG_OF_PERICENTER":86.6279,"MEAN_ANOMALY":274.5896,"EPHEMERIS_TYPE":0,"CLASSIFICATION_TYPE":"U","NORAD_CAT_ID":39679,"ELEMENT_SET_NO":999,"REV_AT_EPOCH":65558,"BSTAR":0.00043144,"MEAN_MOTION_DOT":0.00019612,"MEAN_MOTION_DDOT":0},{"OBJECT_NAME":"ALOS-2","OBJECT_ID":"2014-029A","EPOCH":"2026-03-05T22:21:16.606080","MEAN_MOTION":14.79482659,"ECCENTRICITY":0.00014502,"INCLINATION":97.92,"RA_OF_ASC_NODE":163.583,"ARG_OF_PERICENTER":97.0998,"MEAN_ANOMALY":263.0378,"EPHEMERIS_TYPE":0,"CLASSIFICATION_TYPE":"U","NORAD_CAT_ID":39766,"ELEMENT_SET_NO":999,"REV_AT_EPOCH":63631,"BSTAR":0.00014011437,"MEAN_MOTION_DOT":9.95e-6,"MEAN_MOTION_DDOT":0},{"OBJECT_NAME":"YAOGAN-29","OBJECT_ID":"2015-069A","EPOCH":"2026-03-06T00:23:05.385984","MEAN_MOTION":14.82989087,"ECCENTRICITY":0.00020798,"INCLINATION":98.0142,"RA_OF_ASC_NODE":93.435,"ARG_OF_PERICENTER":42.1602,"MEAN_ANOMALY":317.9771,"EPHEMERIS_TYPE":0,"CLASSIFICATION_TYPE":"U","NORAD_CAT_ID":41038,"ELEMENT_SET_NO":999,"REV_AT_EPOCH":55533,"BSTAR":4.1863191e-5,"MEAN_MOTION_DOT":2.86e-6,"MEAN_MOTION_DDOT":0},{"OBJECT_NAME":"ASTRO-H (HITOMI)","OBJECT_ID":"2016-012A","EPOCH":"2026-03-05T22:22:31.443168","MEAN_MOTION":15.09972449,"ECCENTRICITY":0.0009995,"INCLINATION":31.0008,"RA_OF_ASC_NODE":20.7932,"ARG_OF_PERICENTER":293.6422,"MEAN_ANOMALY":66.3167,"EPHEMERIS_TYPE":0,"CLASSIFICATION_TYPE":"U","NORAD_CAT_ID":41337,"ELEMENT_SET_NO":999,"REV_AT_EPOCH":55166,"BSTAR":0.00024217612,"MEAN_MOTION_DOT":4.128e-5,"MEAN_MOTION_DDOT":0}]
